GSAT0101 (GALILEO-PFM)  
1 37846U 11060A   25081.17793772 -.00000082  00000+0  00000+0 0  9994
2 37846  57.1076 354.0125 0004072   5.8138 354.2178  1.70475844 83410
GSAT0102 (GALILEO-FM2)  
1 37847U 11060B   25085.50282433 -.00000080  00000+0  00000+0 0  9991
2 37847  57.1073 353.8956 0004455 327.4677 212.1646  1.70475679 83499
GSAT0103 (GALILEO-FM3)  
1 38857U 12055A   25086.49689240  .00000066  00000+0  00000+0 0  9997
2 38857  55.5441 113.8144 0005864 280.0041  80.0122  1.70473441 77397
GSAT0201 (GALILEO 5)    
1 40128U 14050A   25086.05743754 -.00000006  00000+0  00000+0 0  9996
2 40128  49.3614 291.6505 1623877 162.1118 204.3535  1.85519662 70020
GSAT0202 (GALILEO 6)    
1 40129U 14050B   25086.85362836 -.00000011  00000+0  00000+0 0  9999
2 40129  49.3771 290.6989 1623700 162.9219 203.2602  1.85520315 72207
GSAT0203 (GALILEO 7)    
1 40544U 15017A   25085.06357067 -.00000079  00000+0  00000+0 0  9990
2 40544  56.9303 353.7857 0023982  44.7959 315.4260  1.70475447 61563
GSAT0204 (GALILEO 8)    
1 40545U 15017B   25087.07738695 -.00000082  00000+0  00000+0 0  9998
2 40545  56.9073 353.7649 0003422 284.9798  75.0154  1.70475332 62265
GSAT0205 (GALILEO 9)    
1 40889U 15045A   25086.25905745  .00000015  00000+0  00000+0 0  9996
2 40889  55.0979 233.9473 0005338  49.1931 310.7956  1.70473765 59390
GSAT0206 (GALILEO 10)   
1 40890U 15045B   25085.30652252  .00000022  00000+0  00000+0 0  9993
2 40890  55.0999 233.9690 0003335  51.9771 308.0005  1.70473742 59405
GSAT0209 (GALILEO 12)   
1 41174U 15079A   25086.64846817  .00000066  00000+0  00000+0 0  9994
2 41174  55.5644 113.5221 0005189 313.0907  46.9479  1.70474463 57747
GSAT0208 (GALILEO 11)   
1 41175U 15079B   25085.69525431  .00000064  00000+0  00000+0 0  9993
2 41175  55.5622 113.5456 0004528 312.8616  47.1825  1.70474366 57722
GSAT0211 (GALILEO 14)   
1 41549U 16030A   25086.99200666  .00000012  00000+0  00000+0 0  9993
2 41549  55.2487 233.9643 0002953  21.4066 338.5451  1.70473804 55041
GSAT0210 (GALILEO 13)   
1 41550U 16030B   25086.66320902  .00000013  00000+0  00000+0 0  9996
2 41550  55.2486 233.9718 0001649 189.0945 170.8432  1.70473889 55031
GSAT0207 (GALILEO 15)   
1 41859U 16069A   25086.35532962  .00000065  00000+0  00000+0 0  9994
2 41859  55.2305 113.4624 0005593 301.2009  58.8264  1.70474427 51787
GSAT0212 (GALILEO 16)   
1 41860U 16069B   25085.03612478  .00000061  00000+0  00000+0 0  9997
2 41860  55.2272 113.4949 0003930 322.0180  38.0351  1.70474652 52010
GSAT0213 (GALILEO 17)   
1 41861U 16069C   25086.57739627  .00000065  00000+0  00000+0 0  9998
2 41861  55.2302 113.4594 0005718 286.4166  73.6025  1.70474886 52038
GSAT0214 (GALILEO 18)   
1 41862U 16069D   25084.96318798  .00000061  00000+0  00000+0 0  9998
2 41862  55.2280 113.4973 0004719 288.7193  71.3100  1.70474724 52007
GSAT0215 (GALILEO 19)   
1 43055U 17079A   25085.45327470  .00000021  00000+0  00000+0 0  9994
2 43055  55.2262 233.8245 0000130 340.0823  19.8639  1.70474494 45355
GSAT0216 (GALILEO 20)   
1 43056U 17079B   25086.33132482  .00000015  00000+0  00000+0 0  9993
2 43056  55.2264 233.8003 0001609 298.2929  61.6329  1.70474607 45350
GSAT0217 (GALILEO 21)   
1 43057U 17079C   25085.37876396  .00000021  00000+0  00000+0 0  9993
2 43057  55.2268 233.8249 0001711 344.2840  15.6577  1.70474524 45357
GSAT0218 (GALILEO 22)   
1 43058U 17079D   25086.77196024  .00000013  00000+0  00000+0 0  9993
2 43058  55.2247 233.7841 0001993 285.7471  74.1710  1.70474507 45375
GSAT0221 (GALILEO 25)   
1 43564U 18060A   25080.22141065 -.00000084  00000+0  00000+0 0  9994
2 43564  57.2828 354.0053 0005084 309.0933  50.8887  1.70475499 41456
GSAT0222 (GALILEO 26)   
1 43565U 18060B   25084.54643956 -.00000079  00000+0  00000+0 0  9994
2 43565  57.2854 353.8912 0003856 284.8555  75.1302  1.70475148 41567
GSAT0219 (GALILEO 23)   
1 43566U 18060C   25085.94110202 -.00000080  00000+0  00000+0 0  9995
2 43566  57.2845 353.8553 0004492 318.3663  41.6303  1.70475326 41566
GSAT0220 (GALILEO 24)   
1 43567U 18060D   25084.98871246 -.00000079  00000+0  00000+0 0  9999
2 43567  57.2844 353.8819 0004643 311.1105  48.8785  1.70475241 41537
GSAT0223 (GALILEO 27)   
1 49809U 21116A   25086.30222506 -.00000080  00000+0  00000+0 0  9999
2 49809  57.2743 353.7387 0001416 281.3239 255.3884  1.70475193 20561
GSAT0224 (GALILEO 28)   
1 49810U 21116B   25086.11800531 -.00000080  00000+0  00000+0 0  9990
2 49810  57.2753 353.7413 0001231 295.6735 240.5267  1.70475237 20579
GSAT0225 (GALILEO 29)   
1 59598U 24079A   25086.72466678  .00000064  00000+0  00000+0 0  9993
2 59598  54.8474 113.5689 0003239 252.8382 287.5092  1.70474804  5700
GSAT0227 (GALILEO 30)   
1 59600U 24079C   25086.02770038  .00000063  00000+0  00000+0 0  9997
2 59600  54.8429 113.5880 0000285 248.3782 111.7011  1.70474772  5746
GSAT0232 (GALILEO 32)   
1 61182U 24167A   25085.71411975  .00000019  00000+0  00000+0 0  9991
2 61182  55.3363 233.5886 0002769 188.8520 173.9162  1.70474004  3252
GSAT0226 (GALILEO 31)   
1 61183U 24167B   25086.11369475  .00000017  00000+0  00000+0 0  9992
2 61183  55.3346 233.5832 0001937 136.2827 224.2737  1.70474094  3233
